# Made by eph2tle, compiled Jan 25 2021 15:21:50
# Run at Fri Feb  5 11:49:52 2021
#
#    The following TLEs (Two-Line Elements) were generated by fitting
# a numerically-integrated ephemeris,  based on the orbit given below,
# to the SDP4/SGP4 models.  Each TLE is good for the interval between
# its epoch and the epoch of the subsequent TLE (usually one day).
# The maximum deviation between the numerically integrated ephemerides
# and the TLE-based ephemeris, in kilometers,  is given for each TLE
# as the "worst residual".
#
#    This fitting is done using the 'eph2tle' code packaged with Find_Orb.
# The code has details on how the TLEs were computed :
#
#    https://github.com/Bill-Gray/find_orb/eph2tle.cpp
#
#    Be warned:  the error given is that between the numerically
# integrated ephems and the TLE model.  There will usually be at
# least some additional difference between the ephems and the actual
# motion of the satellite,  especially if the ephemerides are based
# on a short arc.  If the following orbital elements say something
# like "[based on] 10 observations 2015 Jan. 1-13",  and the TLEs
# are for 2015 May,  the extrapolation may be tenuous at best.  If
# your application requires a specific level of accuracy,  you may
# want to contact me;  I can give you some idea as to the fit of the
# underlying data (and possibly TLEs based on newer data).
#
#   You can usually find the underlying observational data,  and the
# fitted orbit,  residuals,  ephemerides,  and sometimes some comments
# about the object,  among the pages listed at
#
#    https://www.projectpluto.com/pluto/mpecs/pseudo.htm
#
#    Also,  if you use a TLE outside the "correct" time range (between
# its MJD and that of the next TLE),  all bets are off.  I've carefully
# computed and minimized the worst error over the "correct" time frame,
# but the ephemeris may (or may not) diverge wildly outside of it.
#
# Ephem range: 59215.000000 59366.000000 1.000000
# Created Fri Feb  5 11:49:38 2021
# Ephemeris start:  1 Jan 2021  0:00:00
# Ephemeris end:    1 Jun 2021  0:00:00
# Times are all TDT
# Positions/velocities are in ecliptic J2000
# Orbital elements:  C1AUGE1 = ZTF0Edd = 'Multijunk'
#    Perigee 2020 Dec 14.07070818 +/- 0.00182 TT =  1:41:49.186 (JD 2459197.57070818)
# A1: 1.68e-5 +/- 3.66e-8   A2: -1.23e-6 +/- 8.56e-9   A3: -1.68e-6 +/- 5.27e-9 AU/day^2 [1/r^2]
# Epoch 2020 Dec 15.0 TT = JDT 2459198.5                        Gray
# M 143.82347349274 +/- 0.27          (J2000 equator)
# n 154.76674859281 +/- 0.00987       Peri.  231.88007756 +/- 0.06
# a 74156.9285210 +/- 3.15            Node    20.92828948 +/- 0.024
# e   0.7707307476 +/- 0.000306       Incl.   21.99111145 +/- 0.0030
# P3349.49m/2.326d           H 32.7   G  0.15   U  9.6
# q 17001.9035609 +/- 23.2    Q 131311.953481 +/- 18.6
# 35 of 113 observations 2020 Nov. 19-2021 Feb. 5; mean residual 47".588
#
# 1 NoradU COSPAR   Epoch.epoch     dn/dt/2  d2n/dt2/6 BSTAR    T El# C
# 2 NoradU Inclina RAAscNode Eccent  ArgPeri MeanAno  MeanMotion Rev# C

# Worst residual: 149.17 km
# MJD 59215.000000 (2021 Jan  1  0:00)
C1AUGE1 = ZTF0Edd = 'Multijunk'
1 89983U 00000AAQ 21001.49919926  .00000000  00000-0  00000-0 0 11320
2 89983 021.5277 018.5192 7344105 250.9015 306.7044 00.43002615    00

# Worst residual: 113.81 km
# MJD 59216.000000 (2021 Jan  2  0:00)
C1AUGE1 = ZTF0Edd = 'Multijunk'
1 89983U 00000AAQ 21002.49919926  .00000000  00000-0  00000-0 0 11321
2 89983 021.5118 018.4240 7313531 252.3533 101.0111 00.42854690    05

# Worst residual: 101.65 km
# MJD 59217.000000 (2021 Jan  3  0:00)
C1AUGE1 = ZTF0Edd = 'Multijunk'
1 89983U 00000AAQ 21003.49919926  .00000000  00000-0  00000-0 0 11322
2 89983 021.4760 018.1460 7285518 253.2560 252.2270 00.42660888    00

# Worst residual: 226.02 km
# MJD 59218.000000 (2021 Jan  4  0:00)
C1AUGE1 = ZTF0Edd = 'Multijunk'
1 89983U 00000AAQ 21004.49919926  .00000000  00000-0  00000-0 0 11323
2 89983 021.4869 018.0348 7290180 254.3839 046.3043 00.43425936    00

# Worst residual: 120.93 km
# MJD 59219.000000 (2021 Jan  5  0:00)
C1AUGE1 = ZTF0Edd = 'Multijunk'
1 89983U 00000AAQ 21005.49919926  .00000000  00000-0  00000-0 0 11324
2 89983 021.4348 017.7790 7242749 255.7763 197.6096 00.42518235    00

# Worst residual: 209.34 km
# MJD 59220.000000 (2021 Jan  6  0:00)
C1AUGE1 = ZTF0Edd = 'Multijunk'
1 89983U 00000AAQ 21006.49919926  .00000000  00000-0  00000-0 0 11325
2 89983 021.4357 017.5853 7244839 256.9507 349.6756 00.43469608    01

# Worst residual: 130.87 km
# MJD 59221.000000 (2021 Jan  7  0:00)
C1AUGE1 = ZTF0Edd = 'Multijunk'
1 89983U 00000AAQ 21007.49919926  .00000000  00000-0  00000-0 0 11326
2 89983 021.4072 017.4124 7209470 258.2970 142.7680 00.42531202    03

# Worst residual: 113.15 km
# MJD 59222.000000 (2021 Jan  8  0:00)
C1AUGE1 = ZTF0Edd = 'Multijunk'
1 89983U 00000AAQ 21008.49919926  .00000000  00000-0  00000-0 0 11327
2 89983 021.3979 017.1204 7197804 259.1844 293.6083 00.42664228    09

# Worst residual: 120.04 km
# MJD 59223.000000 (2021 Jan  9  0:00)
C1AUGE1 = ZTF0Edd = 'Multijunk'
1 89983U 00000AAQ 21009.49919926  .00000000  00000-0  00000-0 0 11328
2 89983 021.3917 016.9940 7181595 260.7990 087.1867 00.42732349    01

# Worst residual: 92.05 km
# MJD 59224.000000 (2021 Jan 10  0:00)
C1AUGE1 = ZTF0Edd = 'Multijunk'
1 89983U 00000AAQ 21010.49919926  .00000000  00000-0  00000-0 0 11320
2 89983 021.3619 016.6291 7146910 261.8731 237.6170 00.42402252    09

# Worst residual: 196.46 km
# MJD 59225.000000 (2021 Jan 11  0:00)
C1AUGE1 = ZTF0Edd = 'Multijunk'
1 89983U 00000AAQ 21011.49919926  .00000000  00000-0  00000-0 0 11321
2 89983 021.3852 016.5181 7151651 263.0048 030.6138 00.43365356    07

# Worst residual: 118.12 km
# MJD 59226.000000 (2021 Jan 12  0:00)
C1AUGE1 = ZTF0Edd = 'Multijunk'
1 89983U 00000AAQ 21012.49919926  .00000000  00000-0  00000-0 0 11322
2 89983 021.3351 016.2337 7104750 264.5298 181.6062 00.42295776    02

# Worst residual: 225.50 km
# MJD 59227.000000 (2021 Jan 13  0:00)
C1AUGE1 = ZTF0Edd = 'Multijunk'
1 89983U 00000AAQ 21013.49919926  .00000000  00000-0  00000-0 0 11323
2 89983 021.3527 015.9893 7115940 265.7337 332.4043 00.43032710    03

# Worst residual: 110.80 km
# MJD 59228.000000 (2021 Jan 14  0:00)
C1AUGE1 = ZTF0Edd = 'Multijunk'
1 89983U 00000AAQ 21014.49919926  .00000000  00000-0  00000-0 0 11324
2 89983 021.3374 015.8464 7073457 267.1358 125.2584 00.42372616    00

# Worst residual: 107.00 km
# MJD 59229.000000 (2021 Jan 15  0:00)
C1AUGE1 = ZTF0Edd = 'Multijunk'
1 89983U 00000AAQ 21015.49919926  .00000000  00000-0  00000-0 0 11325
2 89983 021.3326 015.4305 7056136 268.1715 275.1513 00.42378966    01

# Worst residual: 198.58 km
# MJD 59230.000000 (2021 Jan 16  0:00)
C1AUGE1 = ZTF0Edd = 'Multijunk'
1 89983U 00000AAQ 21016.49919926  .00000000  00000-0  00000-0 0 11326
2 89983 021.3427 015.3185 7061740 269.6454 068.0468 00.42754795    07

# Worst residual: 92.94 km
# MJD 59231.000000 (2021 Jan 17  0:00)
C1AUGE1 = ZTF0Edd = 'Multijunk'
1 89983U 00000AAQ 21017.49919926  .00000000  00000-0  00000-0 0 11327
2 89983 021.3184 014.9629 7008811 270.9467 217.9371 00.42170166    06

# Worst residual: 126.09 km
# MJD 59232.000000 (2021 Jan 18  0:00)
C1AUGE1 = ZTF0Edd = 'Multijunk'
1 89983U 00000AAQ 21018.49919926  .00000000  00000-0  00000-0 0 11328
2 89983 021.3661 014.7469 7005460 272.2344 009.4329 00.43280092    00

# Worst residual: 110.31 km
# MJD 59233.000000 (2021 Jan 19  0:00)
C1AUGE1 = ZTF0Edd = 'Multijunk'
1 89983U 00000AAQ 21019.49919926  .00000000  00000-0  00000-0 0 11329
2 89983 021.3257 014.4939 6971118 273.7547 160.5610 00.42137586    02

# Worst residual: 174.96 km
# MJD 59234.000000 (2021 Jan 20  0:00)
C1AUGE1 = ZTF0Edd = 'Multijunk'
1 89983U 00000AAQ 21020.49919926  .00000000  00000-0  00000-0 0 11321
2 89983 021.3572 014.1484 6974909 274.8812 310.3490 00.42537332    06

# Worst residual: 107.04 km
# MJD 59235.000000 (2021 Jan 21  0:00)
C1AUGE1 = ZTF0Edd = 'Multijunk'
1 89983U 00000AAQ 21021.49919926  .00000000  00000-0  00000-0 0 11322
2 89983 021.3500 014.0146 6942764 276.4681 102.7311 00.42311476    01

# Worst residual: 82.45 km
# MJD 59236.000000 (2021 Jan 22  0:00)
C1AUGE1 = ZTF0Edd = 'Multijunk'
1 89983U 00000AAQ 21022.49919926  .00000000  00000-0  00000-0 0 11323
2 89983 021.3589 013.6043 6914451 277.5570 251.9663 00.42105042    07

# Worst residual: 185.19 km
# MJD 59237.000000 (2021 Jan 23  0:00)
C1AUGE1 = ZTF0Edd = 'Multijunk'
1 89983U 00000AAQ 21023.49919926  .00000000  00000-0  00000-0 0 11324
2 89983 021.3966 013.4700 6922426 278.8401 044.1198 00.42928534    06

# Worst residual: 105.15 km
# MJD 59238.000000 (2021 Jan 24  0:00)
C1AUGE1 = ZTF0Edd = 'Multijunk'
1 89983U 00000AAQ 21024.49919926  .00000000  00000-0  00000-0 0 11325
2 89983 021.3791 013.0943 6877216 280.4815 193.4604 00.41974175    02

# Worst residual: 221.03 km
# MJD 59239.000000 (2021 Jan 25  0:00)
C1AUGE1 = ZTF0Edd = 'Multijunk'
1 89983U 00000AAQ 21025.49919926  .00000000  00000-0  00000-0 0 11326
2 89983 021.4418 012.8328 6887422 281.8414 343.4587 00.42892122    02

# Worst residual: 102.04 km
# MJD 59240.000000 (2021 Jan 26  0:00)
C1AUGE1 = ZTF0Edd = 'Multijunk'
1 89983U 00000AAQ 21026.49919926  .00000000  00000-0  00000-0 0 11327
2 89983 021.4191 012.6088 6849114 283.3735 134.8204 00.42002218    07

# Worst residual: 107.92 km
# MJD 59241.000000 (2021 Jan 27  0:00)
C1AUGE1 = ZTF0Edd = 'Multijunk'
1 89983U 00000AAQ 21027.49919926  .00000000  00000-0  00000-0 0 11328
2 89983 021.4662 012.2564 6840805 284.4086 283.5228 00.42098997    01

# Worst residual: 140.37 km
# MJD 59242.000000 (2021 Jan 28  0:00)
C1AUGE1 = ZTF0Edd = 'Multijunk'
1 89983U 00000AAQ 21028.49919926  .00000000  00000-0  00000-0 0 11329
2 89983 021.4828 012.1452 6841465 286.1061 075.2900 00.42354236    09

# Worst residual: 90.52 km
# MJD 59243.000000 (2021 Jan 29  0:00)
C1AUGE1 = ZTF0Edd = 'Multijunk'
1 89983U 00000AAQ 21029.49919926  .00000000  00000-0  00000-0 0 11320
2 89983 021.5009 011.7367 6791262 287.4442 223.8640 00.41855472    06
